EARTHCARE               
1 59908U 24101A   24289.60864625  .00028594  00000+0  39452-3 0  9994
2 59908  96.9923  54.7486 0001525  74.9580 285.1845 15.57155997 21719
